[
    {
        "Altitude(m)": 585698.3711491693,
        "Argument of Periapsis(deg)": -0.03013754771062987,
        "Eccentricity": 0.0,
        "Inclination(deg)": 97.0,
        "Latitude(deg)": -57.56152293039518,
        "Longitude(deg)": 27.941043498923012,
        "Mean Anomaly(deg)": -57.98100897441664,
        "RAAN(deg)": 120.00792940482468,
        "Satellite Name": "Starlink Shell 3 1857",
        "Satellite Number": 1857,
        "Semi-Major Axis(m)": 6938478.169268562,
        "Time(s)": 760
    },
    {
        "Altitude(m)": 585479.2156289885,
        "Argument of Periapsis(deg)": -0.030534094391032898,
        "Eccentricity": 0.0,
        "Inclination(deg)": 97.0,
        "Latitude(deg)": -56.9551055324665,
        "Longitude(deg)": 27.641494085473678,
        "Mean Anomaly(deg)": -57.355532776711605,
        "RAAN(deg)": 120.00803373909866,
        "Satellite Name": "Starlink Shell 3 1857",
        "Satellite Number": 1857,
        "Semi-Major Axis(m)": 6938478.169268562,
        "Time(s)": 770
    },
    {
        "Altitude(m)": 585257.5070206935,
        "Argument of Periapsis(deg)": -0.030930641071435925,
        "Eccentricity": 0.0,
        "Inclination(deg)": 97.0,
        "Latitude(deg)": -56.34809192925891,
        "Longitude(deg)": 27.3501716119743,
        "Mean Anomaly(deg)": -56.73005657900661,
        "RAAN(deg)": 120.00813807337268,
        "Satellite Name": "Starlink Shell 3 1857",
        "Satellite Number": 1857,
        "Semi-Major Axis(m)": 6938478.169268562,
        "Time(s)": 780
    },
    {
        "Altitude(m)": 585033.3341181925,
        "Argument of Periapsis(deg)": -0.031327187751838945,
        "Eccentricity": 0.0,
        "Inclination(deg)": 97.0,
        "Latitude(deg)": -55.74050863997128,
        "Longitude(deg)": 27.0666414136104,
        "Mean Anomaly(deg)": -56.10458038130155,
        "RAAN(deg)": 120.0082424076467,
        "Satellite Name": "Starlink Shell 3 1857",
        "Satellite Number": 1857,
        "Semi-Major Axis(m)": 6938478.169268562,
        "Time(s)": 790
    },
    {
        "Altitude(m)": 584806.7866489437,
        "Argument of Periapsis(deg)": -0.031723734432241975,
        "Eccentricity": 0.0,
        "Inclination(deg)": 97.0,
        "Latitude(deg)": -55.13238034229962,
        "Longitude(deg)": 26.790497534048512,
        "Mean Anomaly(deg)": -55.4791041835965,
        "RAAN(deg)": 120.0083467419207,
        "Satellite Name": "Starlink Shell 3 1857",
        "Satellite Number": 1857,
        "Semi-Major Axis(m)": 6938478.169268562,
        "Time(s)": 800
    },
    {
        "Altitude(m)": 584577.9552346297,
        "Argument of Periapsis(deg)": -0.032120281112645,
        "Eccentricity": 0.0,
        "Inclination(deg)": 97.0,
        "Latitude(deg)": -54.52373002997514,
        "Longitude(deg)": 26.521360841959208,
        "Mean Anomaly(deg)": -54.85362798589143,
        "RAAN(deg)": 120.00845107619472,
        "Satellite Name": "Starlink Shell 3 1857",
        "Satellite Number": 1857,
        "Semi-Major Axis(m)": 6938478.169268562,
        "Time(s)": 810
    },
    {
        "Altitude(m)": 584346.9313513867,
        "Argument of Periapsis(deg)": -0.03251682779304802,
        "Eccentricity": 0.0,
        "Inclination(deg)": 97.0,
        "Latitude(deg)": -53.91457915495153,
        "Longitude(deg)": 26.258877374085856,
        "Mean Anomaly(deg)": -54.22815178818642,
        "RAAN(deg)": 120.00855541046872,
        "Satellite Name": "Starlink Shell 3 1857",
        "Satellite Number": 1857,
        "Semi-Major Axis(m)": 6938478.169268562,
        "Time(s)": 820
    },
    {
        "Altitude(m)": 584113.8072896415,
        "Argument of Periapsis(deg)": -0.032913374473451044,
        "Eccentricity": 0.0,
        "Inclination(deg)": 97.0,
        "Latitude(deg)": -53.30494775594407,
        "Longitude(deg)": 26.002715367712504,
        "Mean Anomaly(deg)": -53.602675590481375,
        "RAAN(deg)": 120.00865974474274,
        "Satellite Name": "Starlink Shell 3 1857",
        "Satellite Number": 1857,
        "Semi-Major Axis(m)": 6938478.169268562,
        "Time(s)": 830
    },
    {
        "Altitude(m)": 583878.6761134858,
        "Argument of Periapsis(deg)": -0.03330992115385407,
        "Eccentricity": 0.0,
        "Inclination(deg)": 97.0,
        "Latitude(deg)": -52.69485457480577,
        "Longitude(deg)": 25.752563986873252,
        "Mean Anomaly(deg)": -52.97719939277632,
        "RAAN(deg)": 120.00876407901674,
        "Satellite Name": "Starlink Shell 3 1857",
        "Satellite Number": 1857,
        "Semi-Major Axis(m)": 6938478.169268562,
        "Time(s)": 840
    },
    {
        "Altitude(m)": 583641.6316197133,
        "Argument of Periapsis(deg)": -0.0337064678342571,
        "Eccentricity": 0.0,
        "Inclination(deg)": 97.0,
        "Latitude(deg)": -52.08431716205159,
        "Longitude(deg)": 25.50813221053255,
        "Mean Anomaly(deg)": -52.351723195071266,
        "RAAN(deg)": 120.00886841329077,
        "Satellite Name": "Starlink Shell 3 1857",
        "Satellite Number": 1857,
        "Semi-Major Axis(m)": 6938478.169268562,
        "Time(s)": 850
    },
    {
        "Altitude(m)": 583402.7682964456,
        "Argument of Periapsis(deg)": -0.03410301451466012,
        "Eccentricity": 0.0,
        "Inclination(deg)": 97.0,
        "Latitude(deg)": -51.47335197268529,
        "Longitude(deg)": 25.269146185055632,
        "Mean Anomaly(deg)": -51.72624699736621,
        "RAAN(deg)": 120.00897274756477,
        "Satellite Name": "Starlink Shell 3 1857",
        "Satellite Number": 1857,
        "Semi-Major Axis(m)": 6938478.169268562,
        "Time(s)": 860
    },
    {
        "Altitude(m)": 583162.1812814312,
        "Argument of Periapsis(deg)": -0.034499561195063144,
        "Eccentricity": 0.0,
        "Inclination(deg)": 97.0,
        "Latitude(deg)": -50.861974453336906,
        "Longitude(deg)": 25.03534922858944,
        "Mean Anomaly(deg)": -51.10077079966121,
        "RAAN(deg)": 120.00907708183878,
        "Satellite Name": "Starlink Shell 3 1857",
        "Satellite Number": 1857,
        "Semi-Major Axis(m)": 6938478.169268562,
        "Time(s)": 870
    },
    {
        "Altitude(m)": 582919.9663199623,
        "Argument of Periapsis(deg)": -0.03489610787546617,
        "Eccentricity": 0.0,
        "Inclination(deg)": 97.0,
        "Latitude(deg)": -50.25019912161608,
        "Longitude(deg)": 24.80649943131751,
        "Mean Anomaly(deg)": -50.47529460195614,
        "RAAN(deg)": 120.00918141611278,
        "Satellite Name": "Starlink Shell 3 1857",
        "Satellite Number": 1857,
        "Semi-Major Axis(m)": 6938478.169268562,
        "Time(s)": 880
    },
    {
        "Altitude(m)": 582676.2197225166,
        "Argument of Periapsis(deg)": -0.0352926545558692,
        "Eccentricity": 0.0,
        "Inclination(deg)": 97.0,
        "Latitude(deg)": -49.63803963846702,
        "Longitude(deg)": 24.582369042349644,
        "Mean Anomaly(deg)": -49.849818404251124,
        "RAAN(deg)": 120.00928575038678,
        "Satellite Name": "Starlink Shell 3 1857",
        "Satellite Number": 1857,
        "Semi-Major Axis(m)": 6938478.169268562,
        "Time(s)": 890
    },
    {
        "Altitude(m)": 582431.0383220697,
        "Argument of Periapsis(deg)": -0.035689201236272214,
        "Eccentricity": 0.0,
        "Inclination(deg)": 97.0,
        "Latitude(deg)": -49.025508874230205,
        "Longitude(deg)": 24.362743951901493,
        "Mean Anomaly(deg)": -49.224342206546005,
        "RAAN(deg)": 120.00939008466078,
        "Satellite Name": "Starlink Shell 3 1857",
        "Satellite Number": 1857,
        "Semi-Major Axis(m)": 6938478.169268562,
        "Time(s)": 900
    },
    {
        "Altitude(m)": 582184.5194311233,
        "Argument of Periapsis(deg)": -0.036085747916675244,
        "Eccentricity": 0.0,
        "Inclination(deg)": 97.0,
        "Latitude(deg)": -48.412618969037794,
        "Longitude(deg)": 24.14742174664938,
        "Mean Anomaly(deg)": -48.59886600884101,
        "RAAN(deg)": 120.0094944189348,
        "Satellite Name": "Starlink Shell 3 1857",
        "Satellite Number": 1857,
        "Semi-Major Axis(m)": 6938478.169268562,
        "Time(s)": 910
    },
    {
        "Altitude(m)": 581936.7607984792,
        "Argument of Periapsis(deg)": -0.03648229459707827,
        "Eccentricity": 0.0,
        "Inclination(deg)": 97.0,
        "Latitude(deg)": -47.79938138809054,
        "Longitude(deg)": 23.936211355759834,
        "Mean Anomaly(deg)": -47.973389811136,
        "RAAN(deg)": 120.0095987532088,
        "Satellite Name": "Starlink Shell 3 1857",
        "Satellite Number": 1857,
        "Semi-Major Axis(m)": 6938478.169268562,
        "Time(s)": 920
    },
    {
        "Altitude(m)": 581687.8605657534,
        "Argument of Periapsis(deg)": -0.0368788412774813,
        "Eccentricity": 0.0,
        "Inclination(deg)": 97.0,
        "Latitude(deg)": -47.1858069723138,
        "Longitude(deg)": 23.72893276735547,
        "Mean Anomaly(deg)": -47.3479136134309,
        "RAAN(deg)": 120.00970308748282,
        "Satellite Name": "Starlink Shell 3 1857",
        "Satellite Number": 1857,
        "Semi-Major Axis(m)": 6938478.169268562,
        "Time(s)": 930
    },
    {
        "Altitude(m)": 581437.9172236631,
        "Argument of Periapsis(deg)": -0.037275387957884314,
        "Eccentricity": 0.0,
        "Inclination(deg)": 97.0,
        "Latitude(deg)": -46.571905984834714,
        "Longitude(deg)": 23.525415295955074,
        "Mean Anomaly(deg)": -46.72243741572589,
        "RAAN(deg)": 120.00980742175683,
        "Satellite Name": "Starlink Shell 3 1857",
        "Satellite Number": 1857,
        "Semi-Major Axis(m)": 6938478.169268562,
        "Time(s)": 940
    }
]